[Satellite]
VERSION=1.1
NAME=CZ-6A DEB
NICKNAME=CZ-6A DEB
TLE1=1 54614U 22151NQ  22342.47601067  .00006645  00000+0  20696-2 0  9990
TLE2=2 54614  98.7081 347.4528 0131055 227.4429 131.5636 14.36411142  2524
STATUS=0
